[{"OBJECT_NAME":"STARLINK-1402","OBJECT_ID":"2020-035AE","EPOCH":"2026-03-09T06:23:56.037120","MEAN_MOTION":15.44772661,"ECCENTRICITY":7.882e-5,"INCLINATION":53.0494,"RA_OF_ASC_NODE":25.4082,"ARG_OF_PERICENTER":198.8556,"MEAN_ANOMALY":161.242,"EPHEMERIS_TYPE":0,"CLASSIFICATION_TYPE":"U","NORAD_CAT_ID":45685,"ELEMENT_SET_NO":999,"REV_AT_EPOCH":31928,"BSTAR":0.0017105302,"MEAN_MOTION_DOT":0.00081749,"MEAN_MOTION_DDOT":0},{"OBJECT_NAME":"ION SCV-006","OBJECT_ID":"2022-057AF","EPOCH":"2026-03-09T21:17:40.633440","MEAN_MOTION":15.42900968,"ECCENTRICITY":0.00195679,"INCLINATION":97.5941,"RA_OF_ASC_NODE":213.009,"ARG_OF_PERICENTER":113.3377,"MEAN_ANOMALY":246.9931,"EPHEMERIS_TYPE":0,"CLASSIFICATION_TYPE":"U","NORAD_CAT_ID":52761,"ELEMENT_SET_NO":999,"REV_AT_EPOCH":21079,"BSTAR":0.00037742839,"MEAN_MOTION_DOT":0.00016616,"MEAN_MOTION_DDOT":0}]
